[{"OBJECT_NAME":"STARLINK-6240","OBJECT_ID":"2023-088AN","EPOCH":"2026-03-09T22:00:01.999584","MEAN_MOTION":15.10951184,"ECCENTRICITY":0.00019604,"INCLINATION":43,"RA_OF_ASC_NODE":93.1348,"ARG_OF_PERICENTER":277.0874,"MEAN_ANOMALY":131.7723,"EPHEMERIS_TYPE":0,"CLASSIFICATION_TYPE":"U","NORAD_CAT_ID":57084,"ELEMENT_SET_NO":999,"REV_AT_EPOCH":577,"BSTAR":0.0035490202,"MEAN_MOTION_DOT":0.00060523,"MEAN_MOTION_DDOT":0},{"OBJECT_NAME":"YUNYAO-1 48","OBJECT_ID":"2025-059F","EPOCH":"2026-03-09T22:24:05.789376","MEAN_MOTION":15.10574052,"ECCENTRICITY":0.00165064,"INCLINATION":97.6074,"RA_OF_ASC_NODE":250.9983,"ARG_OF_PERICENTER":137.6901,"MEAN_ANOMALY":222.5605,"EPHEMERIS_TYPE":0,"CLASSIFICATION_TYPE":"U","NORAD_CAT_ID":63349,"ELEMENT_SET_NO":999,"REV_AT_EPOCH":5331,"BSTAR":0.00030523847,"MEAN_MOTION_DOT":4.989e-5,"MEAN_MOTION_DDOT":0}]
